{
    "links": {
        "self": "http://www.neowsapp.com/rest/v1/neo/3838878?api_key=iIulBulltgU6a56xZRHN4H3l9WmuAYTsLGpBGhQ2"
    },
    "id": "3838878",
    "neo_reference_id": "3838878",
    "name": "(2019 DW1)",
    "designation": "2019 DW1",
    "nasa_jpl_url": "http://ssd.jpl.nasa.gov/sbdb.cgi?sstr=3838878",
    "absolute_magnitude_h": 24.6,
    "estimated_diameter": {
        "kilometers": {
            "estimated_diameter_min": 0.0319561887,
            "estimated_diameter_max": 0.0714562102
        },
        "meters": {
            "estimated_diameter_min": 31.9561886721,
            "estimated_diameter_max": 71.4562101727
        },
        "miles": {
            "estimated_diameter_min": 0.0198566489,
            "estimated_diameter_max": 0.0444008168
        },
        "feet": {
            "estimated_diameter_min": 104.8431420431,
            "estimated_diameter_max": 234.436392583
        }
    },
    "is_potentially_hazardous_asteroid": false,
    "close_approach_data": [
        {
            "close_approach_date": "2019-03-08",
            "close_approach_date_full": "2019-Mar-08 14:19",
            "epoch_date_close_approach": 1552054740000,
            "relative_velocity": {
                "kilometers_per_second": "23.2884821849",
                "kilometers_per_hour": "83838.5358655619",
                "miles_per_hour": "52094.0057993543"
            },
            "miss_distance": {
                "astronomical": "0.0578631983",
                "lunar": "22.5087841387",
                "kilometers": "8656211.217067621",
                "miles": "5378720.2357143298"
            },
            "orbiting_body": "Earth"
        }
    ],
    "orbital_data": {
        "orbit_id": "5",
        "orbit_determination_date": "2019-09-07 05:54:16",
        "first_observation_date": "2019-02-25",
        "last_observation_date": "2019-03-09",
        "data_arc_in_days": 12,
        "observations_used": 29,
        "orbit_uncertainty": "9",
        "minimum_orbit_intersection": ".000693145",
        "jupiter_tisserand_invariant": "3.135",
        "epoch_osculation": "2458550.5",
        "eccentricity": ".7785060899075678",
        "semi_major_axis": "2.24983874193571",
        "inclination": "4.873637479610256",
        "ascending_node_longitude": "164.8588990241552",
        "orbital_period": "1232.609507830053",
        "perihelion_distance": ".4983255800287791",
        "perihelion_argument": "97.37760529160323",
        "aphelion_distance": "4.001351903842641",
        "perihelion_time": "2458596.063173902946",
        "mean_anomaly": "346.6926690887394",
        "mean_motion": ".2920632996201384",
        "equinox": "J2000",
        "orbit_class": {
            "orbit_class_type": "APO",
            "orbit_class_description": "Near-Earth asteroid orbits which cross the Earth’s orbit similar to that of 1862 Apollo",
            "orbit_class_range": "a (semi-major axis) > 1.0 AU; q (perihelion) < 1.017 AU"
        }
    },
    "is_sentry_object": false
}